NORAD_CAT_ID,OBJECT_NAME,OBJECT_TYPE,EPOCH,MEAN_MOTION,ECCENTRICITY,INCLINATION,RA_OF_ASC_NODE,ARG_OF_PERICENTER,MEAN_ANOMALY,BSTAR,MEAN_MOTION_DOT,MEAN_MOTION_DDOT,TLE_LINE0,TLE_LINE1,TLE_LINE2,SEMIMAJOR_AXIS,PERIOD,APOGEE,PERIGEE,DECAYED
53272.0,STARLINK-4122,PAYLOAD,2024-06-30 02:12:12,15.08832492,0.0001094,53.2164,76.6235,108.3361,251.775,-7.3885e-05,-1.463e-05,0.0,0 STARLINK-4122,1 53272U 22086AG  24182.09181304 -.00001463  00000-0 -73885-4 0  9991,2 53272  53.2164  76.6235 0001094 108.3361 251.7750 15.08832492107789,6917.903,95.438,540.525,539.012,0.0
53272.0,STARLINK-4122,PAYLOAD,2024-06-30 10:09:07,15.0884149,0.000108,53.2162,75.1376,107.8766,252.2344,-2.8433e-05,-7.4e-06,0.0,0 STARLINK-4122,1 53272U 22086AG  24182.42300684 -.00000740  00000-0 -28433-4 0  9998,2 53272  53.2162  75.1376 0001080 107.8766 252.2344 15.08841490107834,6917.876,95.437,540.488,538.994,0.0
53272.0,STARLINK-4122,PAYLOAD,2024-06-30 22:52:11,15.08849985,8.86e-05,53.2158,72.7609,100.2732,259.836,0.00017928,2.567e-05,0.0,0 STARLINK-4122,1 53272U 22086AG  24182.95291477  .00002567  00000-0  17928-3 0  9998,2 53272  53.2158  72.7609 0000886 100.2732 259.8360 15.08849985108091,6917.85,95.437,540.328,539.102,0.0
53272.0,STARLINK-4122,PAYLOAD,2024-07-01 02:02:57,15.08871463,0.0001184,53.217,72.1653,111.836,248.2758,0.00017326,2.473e-05,0.0,0 STARLINK-4122,1 53272U 22086AG  24183.08538228  .00002473  00000-0  17326-3 0  9999,2 53272  53.2170  72.1653 0001184 111.8360 248.2758 15.08871463107936,6917.784,95.436,540.468,538.83,0.0
53272.0,STARLINK-4122,PAYLOAD,2024-07-01 09:59:54,15.08844056,0.0001396,53.2166,70.676,100.7334,259.3815,6.9983e-05,8.26e-06,0.0,0 STARLINK-4122,1 53272U 22086AG  24183.41660265  .00000826  00000-0  69983-4 0  9990,2 53272  53.2166  70.6760 0001396 100.7334 259.3815 15.08844056107986,6917.868,95.437,540.699,538.767,0.0
53272.0,STARLINK-4122,PAYLOAD,2024-07-01 21:07:36,15.08837656,0.0001446,53.2167,68.5916,105.4502,254.665,0.00025403,3.757e-05,0.0,0 STARLINK-4122,1 53272U 22086AG  24183.88028691  .00003757  00000-0  25403-3 0  9996,2 53272  53.2167  68.5916 0001446 105.4502 254.6650 15.08837656108053,6917.888,95.438,540.753,538.752,0.0
53272.0,STARLINK-4122,PAYLOAD,2024-07-01 22:42:59,15.08837461,0.0001389,53.2177,68.2956,104.9909,255.1237,0.00023245,3.413e-05,0.0,0 STARLINK-4122,1 53272U 22086AG  24183.94652750  .00003413  00000-0  23245-3 0  9993,2 53272  53.2177  68.2956 0001389 104.9909 255.1237 15.08837461108248,6917.888,95.438,540.714,538.792,0.0
53272.0,STARLINK-4122,PAYLOAD,2024-07-02 09:50:41,15.08835501,0.0001371,53.2169,66.2114,121.9958,238.1167,5.1098e-05,5.25e-06,0.0,0 STARLINK-4122,1 53272U 22086AG  24184.41020716  .00000525  00000-0  51098-4 0  9996,2 53272  53.2169  66.2114 0001371 121.9958 238.1167 15.08835501108311,6917.894,95.438,540.708,538.811,0.0
53272.0,STARLINK-4122,PAYLOAD,2024-07-02 22:33:46,15.08851921,0.0001145,53.2178,63.8366,106.5637,253.5481,-0.000104,-1.943e-05,0.0,0 STARLINK-4122,1 53272U 22086AG  24184.94012280 -.00001943  00000-0 -10400-3 0  9999,2 53272  53.2178  63.8366 0001145 106.5637 253.5481 15.08851921108397,6917.844,95.437,540.501,538.917,0.0
53272.0,STARLINK-4122,PAYLOAD,2024-07-03 01:44:32,15.08852864,0.0001183,53.2178,63.2406,111.5302,248.5817,-8.3226e-05,-1.613e-05,0.0,0 STARLINK-4122,1 53272U 22086AG  24185.07260046 -.00001613  00000-0 -83226-4 0  9990,2 53272  53.2178  63.2406 0001183 111.5302 248.5817 15.08852864108230,6917.841,95.437,540.524,538.888,0.0
53272.0,STARLINK-4122,PAYLOAD,2024-07-03 20:49:10,15.08839276,0.0001235,53.2176,59.6712,107.3834,252.7293,8.0748e-05,9.97e-06,0.0,0 STARLINK-4122,1 53272U 22086AG  24185.86748491  .00000997  00000-0  80748-4 0  9990,2 53272  53.2176  59.6712 0001235 107.3834 252.7293 15.08839276108358,6917.883,95.438,540.602,538.893,0.0
53272.0,STARLINK-4122,PAYLOAD,2024-07-03 22:24:33,15.08841736,0.0001299,53.218,59.3739,106.5897,253.5238,8.5872e-05,1.079e-05,0.0,0 STARLINK-4122,1 53272U 22086AG  24185.93372350  .00001079  00000-0  85872-4 0  9990,2 53272  53.2180  59.3739 0001299 106.5897 253.5238 15.08841736108542,6917.875,95.437,540.639,538.841,0.0
53272.0,STARLINK-4122,PAYLOAD,2024-07-04 01:35:20,15.08839123,0.0001259,53.2183,58.7796,106.407,253.7061,0.00012411,1.688e-05,0.0,0 STARLINK-4122,1 53272U 22086AG  24186.06620439  .00001688  00000-0  12411-3 0  9993,2 53272  53.2183  58.7796 0001259 106.4070 253.7061 15.08839123108564,6917.883,95.438,540.619,538.877,0.0
53272.0,STARLINK-4122,PAYLOAD,2024-07-04 22:15:20,15.088454,0.0001083,53.2177,54.9136,80.6591,279.4524,0.00013436,1.851e-05,0.0,0 STARLINK-4122,1 53272U 22086AG  24186.92732276  .00001851  00000-0  13436-3 0  9991,2 53272  53.2177  54.9136 0001083  80.6591 279.4524 15.08845400108697,6917.864,95.437,540.478,538.98,0.0
53272.0,STARLINK-4122,PAYLOAD,2024-07-05 07:47:39,15.08845849,0.0001072,53.2178,53.1307,77.4566,282.6546,0.00011198,1.495e-05,0.0,0 STARLINK-4122,1 53272U 22086AG  24187.32476216  .00001495  00000-0  11198-3 0  9992,2 53272  53.2178  53.1307 0001072  77.4566 282.6546 15.08845849108757,6917.863,95.437,540.469,538.986,0.0
53272.0,STARLINK-4122,PAYLOAD,2024-07-05 20:30:44,15.08840415,0.0001235,53.2182,50.758,103.41,256.703,-1.317e-05,-4.97e-06,0.0,0 STARLINK-4122,1 53272U 22086AG  24187.85468586 -.00000497  00000-0 -13170-4 0  9997,2 53272  53.2182  50.7580 0001235 103.4100 256.7030 15.08840415108656,6917.879,95.438,540.598,538.89,0.0
53272.0,STARLINK-4122,PAYLOAD,2024-07-05 22:06:07,15.08841941,0.0001322,53.2185,50.4611,113.2203,246.8928,-1.496e-05,-5.26e-06,0.0,0 STARLINK-4122,1 53272U 22086AG  24187.92092488 -.00000526  00000-0 -14960-4 0  9990,2 53272  53.2185  50.4611 0001322 113.2203 246.8928 15.08841941108843,6917.874,95.437,540.654,538.825,0.0
53272.0,STARLINK-4122,PAYLOAD,2024-07-06 13:59:59,15.08831488,0.0001029,53.2195,47.4856,86.5384,273.5726,-1.5343e-06,-3.12e-06,0.0,0 STARLINK-4122,1 53272U 22086AG  24188.58333102 -.00000312  00000-0 -15343-5 0  9994,2 53272  53.2195  47.4856 0001029  86.5384 273.5726 15.08831488108946,6917.906,95.438,540.483,539.06,0.0
53272.0,STARLINK-4122,PAYLOAD,2024-07-06 20:21:32,15.0883729,0.0001294,53.2191,46.2956,91.2205,268.8935,-2.7127e-06,-3.31e-06,0.0,0 STARLINK-4122,1 53272U 22086AG  24188.84829377 -.00000331  00000-0 -27127-5 0  9991,2 53272  53.2191  46.2956 0001294  91.2205 268.8935 15.08837290108800,6917.889,95.438,540.649,538.858,0.0
53272.0,STARLINK-4122,PAYLOAD,2024-07-07 07:29:14,15.08839652,0.0001353,53.2198,44.2143,93.042,267.0727,2.3904e-05,9.3e-07,0.0,0 STARLINK-4122,1 53272U 22086AG  24189.31197161  .00000093  00000-0  23904-4 0  9994,2 53272  53.2198  44.2143 0001353  93.0420 267.0727 15.08839652109050,6917.881,95.438,540.682,538.81,0.0
53272.0,STARLINK-4122,PAYLOAD,2024-07-07 20:12:18,15.0884646,0.000131,53.2198,41.8347,93.6021,266.5121,9.4351e-05,1.214e-05,0.0,0 STARLINK-4122,1 53272U 22086AG  24189.84188629  .00001214  00000-0  94351-4 0  9991,2 53272  53.2198  41.8347 0001310  93.6021 266.5121 15.08846460108950,6917.861,95.437,540.632,538.819,0.0
53272.0,STARLINK-4122,PAYLOAD,2024-07-08 07:20:01,15.08835089,0.000164,53.2182,39.7528,80.8213,279.2965,8.2125e-05,1.019e-05,0.0,0 STARLINK-4122,1 53272U 22086AG  24190.30557475  .00001019  00000-0  82125-4 0  9992,2 53272  53.2182  39.7528 0001640  80.8213 279.2965 15.08835089109028,6917.895,95.438,540.895,538.626,0.0
53272.0,STARLINK-4122,PAYLOAD,2024-07-08 21:38:29,15.08843739,0.0001096,53.2179,37.0737,92.7289,267.3829,9.1138e-05,1.163e-05,0.0,0 STARLINK-4122,1 53272U 22086AG  24190.90172881  .00001163  00000-0  91138-4 0  9996,2 53272  53.2179  37.0737 0001096  92.7289 267.3829 15.08843739109294,6917.869,95.437,540.492,538.976,0.0
53272.0,STARLINK-4122,PAYLOAD,2024-07-09 13:32:21,15.08837904,0.0001247,53.2184,34.1034,88.5505,271.563,1.8504e-05,7e-08,0.0,0 STARLINK-4122,1 53272U 22086AG  24191.56413547  .00000007  00000-0  18504-4 0  9998,2 53272  53.2184  34.1034 0001247  88.5505 271.5630 15.08837904109216,6917.887,95.438,540.614,538.889,0.0
53272.0,STARLINK-4122,PAYLOAD,2024-07-09 19:53:53,15.08844448,0.000112,53.218,32.9138,92.7742,267.3378,-2.0375e-05,-6.12e-06,0.0,0 STARLINK-4122,1 53272U 22086AG  24191.82909182 -.00000612  00000-0 -20375-4 0  9995,2 53272  53.2180  32.9138 0001120  92.7742 267.3378 15.08844448109430,6917.867,95.437,540.507,538.957,0.0
53272.0,STARLINK-4122,PAYLOAD,2024-07-10 07:01:35,15.08846704,0.0001136,53.218,30.8321,90.2963,269.8159,-2.7999e-06,-3.32e-06,0.0,0 STARLINK-4122,1 53272U 22086AG  24192.29276883 -.00000332  00000-0 -27999-5 0  9991,2 53272  53.2180  30.8321 0001136  90.2963 269.8159 15.08846704109325,6917.86,95.437,540.511,538.939,0.0
53272.0,STARLINK-4122,PAYLOAD,2024-07-11 13:13:55,15.08837272,0.0001283,53.2177,25.1816,88.1942,271.9197,8.299e-05,1.033e-05,0.0,0 STARLINK-4122,1 53272U 22086AG  24193.55133426  .00001033  00000-0  82990-4 0  9994,2 53272  53.2177  25.1816 0001283  88.1942 271.9197 15.08837272109699,6917.889,95.438,540.641,538.866,0.0
53272.0,STARLINK-4122,PAYLOAD,2024-07-12 05:07:46,15.08846239,0.0001034,53.2177,22.2084,90.689,269.4221,9.9155e-05,1.291e-05,0.0,0 STARLINK-4122,1 53272U 22086AG  24194.21372735  .00001291  00000-0  99155-4 0  9993,2 53272  53.2177  22.2084 0001034  90.6890 269.4221 15.08846239109613,6917.861,95.437,540.442,539.011,0.0
53272.0,STARLINK-4122,PAYLOAD,2024-07-12 13:04:42,15.08840328,0.0001915,53.2188,20.7204,92.4962,267.625,3.3574e-05,2.46e-06,0.0,0 STARLINK-4122,1 53272U 22086AG  24194.54493593  .00000246  00000-0  33574-4 0  9997,2 53272  53.2188  20.7204 0001915  92.4962 267.6250 15.08840328109660,6917.879,95.438,541.069,538.42,0.0
53272.0,STARLINK-4122,PAYLOAD,2024-07-12 19:26:14,15.08842389,0.0001176,53.2196,19.5364,82.4288,277.6838,6.2318e-05,7.04e-06,0.0,0 STARLINK-4122,1 53272U 22086AG  24194.80989214  .00000704  00000-0  62318-4 0  9993,2 53272  53.2196  19.5364 0001176  82.4288 277.6838 15.08842389109887,6917.873,95.437,540.552,538.925,0.0
